JILIN-1 GAOFEN 3A       
1 44312U 19032C   26068.74542089  .00016264  00000+0  55381-3 0  9993
2 44312  44.9746 183.2861 0002618 111.2900 248.8263 15.30271310372592
STARLINK-32171          
1 60332U 24136D   26068.33567103  .00002080  00000+0  82380-4 0  9994
2 60332  53.1603  77.0876 0001103  99.5325 260.5801 15.30184303 89611
