[{"OBJECT_NAME":"JILIN-1 GAOFEN 3A","OBJECT_ID":"2019-032C","EPOCH":"2026-03-09T17:53:24.364896","MEAN_MOTION":15.3027131,"ECCENTRICITY":0.00026181,"INCLINATION":44.9746,"RA_OF_ASC_NODE":183.2861,"ARG_OF_PERICENTER":111.29,"MEAN_ANOMALY":248.8263,"EPHEMERIS_TYPE":0,"CLASSIFICATION_TYPE":"U","NORAD_CAT_ID":44312,"ELEMENT_SET_NO":999,"REV_AT_EPOCH":37259,"BSTAR":0.00055381133,"MEAN_MOTION_DOT":0.00016264,"MEAN_MOTION_DDOT":0},{"OBJECT_NAME":"STARLINK-32171","OBJECT_ID":"2024-136D","EPOCH":"2026-03-09T08:03:21.976992","MEAN_MOTION":15.30184303,"ECCENTRICITY":0.00011037,"INCLINATION":53.1603,"RA_OF_ASC_NODE":77.0876,"ARG_OF_PERICENTER":99.5325,"MEAN_ANOMALY":260.5801,"EPHEMERIS_TYPE":0,"CLASSIFICATION_TYPE":"U","NORAD_CAT_ID":60332,"ELEMENT_SET_NO":999,"REV_AT_EPOCH":8961,"BSTAR":8.2380095e-5,"MEAN_MOTION_DOT":2.08e-5,"MEAN_MOTION_DDOT":0}]
